[
    {
        "name" : "Alabama",
        "abbrev" : "AL",
        "capital" : "Montgomery", 
        "addresses" : [
            {
                "street" : "7210 Wyndham Pkwy",
                "city" : "Helena", 
                "state" : "AL",
                "zip" : "35080"
            },
            {
                "street" : "4804 Co Rd 52",
                "city" : "Helena", 
                "state" : "AL",
                "zip" : "35080"
            },
            {
                "street" : "2991 Co Rd 95,",
                "city": "Helena",
                "state" : "AL",
                "zip" : "35080"
            }            
        ], 
        "driversLicenseDescription" : ["7 num's"], 
        "sampleLicense" : "1563214",
        "unionAdmissionDate" : "1819-12-14"
    }, 
    {
        "name" : "Alaska",
        "abbrev" : "AK",
        "capital" : "Juneau", 
        "addresses" : [
            {
                "street" : "2285 Trout St",
                "city" : "Juneau", 
                "state" : "AK",
                "zip" : "99801"
            },
            {
                "street" : "8777 Glacier Hwy",
                "city" : "Juneau", 
                "state" : "AK",
                "zip" : "99801"
            },
            {
                "street" : "77 College Rd",
                "city": "Fairbanks",
                "state" : "AK",
                "zip" : "99701"
            }
        ], 
        "driversLicenseDescription" : ["1-7 num's"], 
        "sampleLicense" : "1563255",
        "unionAdmissionDate" : "1959-01-03"
    }, 
    {
        "name" : "Arizona",
        "abbrev" : "AZ",
        "capital" : "Phoenix", 
        "addresses" : [
            {
                "street" : "701 W McDowell Rd",
                "city" : "Phoenix", 
                "state" : "AZ",
                "zip" : "85007"
            },
            {
                "street" : "2508 N Central Ave",
                "city" : "Phoenix", 
                "state" : "AZ",
                "zip" : "85007"
            },
            {
                "street" : "105 S Milton Rd",
                "city": "Flagstaff",
                "state" : "AZ",
                "zip" : "86001"
            }            
        ], 
        "driversLicenseDescription" : ["1 char's, 5-6 num's", 
            "2 char's, 5 num's", "9 num's", "1 char's, 8 num's"], 
        "sampleLicense" : "156654489",
        "unionAdmissionDate" : "1912-02-14"
    }, 
    {
        "name" : "Arkansas",
        "abbrev" : "AR",
        "capital" : "Little Rock", 
        "addresses" : [
            {
                "street" : "104 S University Ave",
                "city" : "Little Rock", 
                "state" : "AR",
                "zip" : "72205"
            },
            {
                "street" : "205 E Oak St",
                "city" : "Conway", 
                "state" : "AR",
                "zip" : "72032"
            },
            {
                "street" : "2211 N Reynolds Rd",
                "city": "Bryant",
                "state" : "AR",
                "zip" : "72022"
            }            
        ], 
        "driversLicenseDescription" : ["9 num's"], 
        "sampleLicense" : "111321156",
        "unionAdmissionDate" : "1836-06-15"
    }, 
    {
        "name" : "California",
        "abbrev" : "CA",
        "capital" : "Sacramento", 
        "addresses" : [
            {
                "street" : "362 California St",
                "city" : "Woodland", 
                "state" : "CA",
                "zip" : "95695"
            },
            {
                "street" : "835 N Reed Ave",
                "city" : "Reedley", 
                "state" : "CA",
                "zip" : "93654"
            },
            {
                "street" : "5200 Coast Hwy",
                "city": "Pacifica",
                "state" : "CA",
                "zip" : "94044"
            }            
        ], 
        "driversLicenseDescription" : ["1 char's, 7 num's"], 
        "sampleLicense" : "A3544567",
        "unionAdmissionDate" : "1850-09-09"
    }, 
    {
        "name" : "Colorado",
        "abbrev" : "CO",
        "capital" : "Denver", 
        "addresses" : [
            {
                "street" : "207 N Wahsatch Ave",
                "city" : "Colorado Springs", 
                "state" : "CO",
                "zip" : "80903"
            },
            {
                "street" : "200 16th St",
                "city" : "Denver", 
                "state" : "CO",
                "zip" : "80202"
            },
            {
                "street" : "2700 W Belleview Ave",
                "city": "Littleton",
                "state" : "CO",
                "zip" : "80123"
            }            
        ], 
        "driversLicenseDescription" : ["2 char's, 6 num's", "9 num's"], 
        "sampleLicense" : "AB123654",
        "unionAdmissionDate" : "1876-08-01"
    }, 
    {
        "name" : "Connecticut",
        "abbrev" : "CT",
        "capital" : "Hartford", 
        "addresses" : [
            {
                "street" : "172 Washington St",
                "city" : "Hartford", 
                "state" : "CT",
                "zip" : "06106"
            },
            {
                "street" : "635 Hartford Rd",
                "city" : "New Britain", 
                "state" : "CT",
                "zip" : "06053"
            },
            {
                "street" : "611 S Main St",
                "city": "Middletown",
                "state" : "CT",
                "zip" : "06457"
            }            
        ], 
        "driversLicenseDescription" : ["9 num's"], 
        "sampleLicense" : "156156321",
        "unionAdmissionDate" : "1788-01-09"
    }, 
    {
        "name" : "Delaware",
        "abbrev" : "DE",
        "capital" : "Dover", 
        "addresses" : [
            {
                "street" : "879 N Dupont Hwy",
                "city" : "Dover", 
                "state" : "DE",
                "zip" : "19901"
            },
            {
                "street" : "1704 E Lebanon Rd",
                "city" : "Dover", 
                "state" : "DE",
                "zip" : "19901"
            },
            {
                "street" : "20817 Dupont Blvd",
                "city": "Georgetown",
                "state" : "DE",
                "zip" : "19947"
            }            
        ], 
        "driversLicenseDescription" : ["4-7 num's"], 
        "sampleLicense" : "1156657",
        "unionAdmissionDate" : "1787-12-07"
    }, 
    {
        "name" : "Florida",
        "abbrev" : "FL",
        "capital" : "Tallahassee", 
        "addresses" : [
            {
                "street" : "2800 S Monroe St",
                "city" : "Tallahassee", 
                "state" : "FL",
                "zip" : "32301"
            },
            {
                "street" : "6875 Sand Lake Rd",
                "city" : "Orlando", 
                "state" : "FL",
                "zip" : "32819"
            },
            {
                "street" : "1028 Lee Rd",
                "city": "Orlando",
                "state" : "FL",
                "zip" : "32810"
            }            
        ], 
        "driversLicenseDescription" : ["1 char's, 11-12 num's"], 
        "sampleLicense" : "A15665448977",
        "unionAdmissionDate" : "1845-03-03"
    }, 
    {
        "name" : "Georgia",
        "abbrev" : "GA",
        "capital" : "Atlanta", 
        "addresses" : [
            {
                "street" : "1203 Virginia Ave",
                "city" : "Atlanta", 
                "state" : "GA",
                "zip" : "30344"
            },
            {
                "street" : "3670 Cascade Rd",
                "city" : "Atlanta", 
                "state" : "GA",
                "zip" : "30331"
            },
            {
                "street" : "2717 Hwy 54 W",
                "city": "Peachtree City",
                "state" : "GA",
                "zip" : "30269"
            }            
        ], 
        "driversLicenseDescription" : ["6-9 num's"], 
        "sampleLicense" : "45335478",
        "unionAdmissionDate" : "1788-01-02"
    }, 
    {
        "name" : "Hawaii",
        "abbrev" : "HI",
        "capital" : "Honolulu", 
        "addresses" : [
            {
                "street" : "4561 Salt Lake Blvd",
                "city" : "Honolulu", 
                "state" : "HI",
                "zip" : "96818"
            },
            {
                "street" : "114 S Kamehameha Hwy",
                "city" : "Wahiawa", 
                "state" : "HI",
                "zip" : "96786"
            },
            {
                "street" : "30 S Kamehameha Hwy",
                "city": "Wahiawa",
                "state" : "HI",
                "zip" : "96786"
            }            
        ], 
        "driversLicenseDescription" : ["9 num's", "Letter \"H\" and 8 num's"], 
        "sampleLicense" : "123320321",
        "unionAdmissionDate" : "1959-08-21"
    }, 
    {
        "name" : "Idaho",
        "abbrev" : "ID",
        "capital" : "Boise", 
        "addresses" : [
            {
                "street" : "1185 S Vista Ave",
                "city" : "Boise", 
                "state" : "ID",
                "zip" : "83705"
            },
            {
                "street" : "1653 S Vista Ave",
                "city" : "Boise", 
                "state" : "ID",
                "zip" : "83705"
            },
            {
                "street" : "1012 Cleveland Blvd",
                "city": "Caldwell",
                "state" : "ID",
                "zip" : "83605"
            }            
        ], 
        "driversLicenseDescription" : ["9 num's", "2 char's, 6 num's, 1 char's"], 
        "sampleLicense" : "456987789",
        "unionAdmissionDate" : "1890-07-03"
    }, 
    {
        "name" : "Illinois",
        "abbrev" : "IL",
        "capital" : "Springfield", 
        "addresses" : [
            {
                "street" : "1664 S Blue Island Ave",
                "city" : "Chicago", 
                "state" : "IL",
                "zip" : "60608"
            },
            {
                "street" : "4830 Dempster St",
                "city" : "Skokie", 
                "state" : "IL",
                "zip" : "60077"
            },
            {
                "street" : "6913 N Milwaukee Ave",
                "city": "Niles",
                "state" : "IL",
                "zip" : "60714"
            }            
        ], 
        "driversLicenseDescription" : ["1 char's, 11 num's"], 
        "sampleLicense" : "C45665478933",
        "unionAdmissionDate" : "1818-12-03"
    }, 
    {
        "name" : "Indiana",
        "abbrev" : "IN",
        "capital" : "Indianapolis", 
        "addresses" : [
            {
                "street" : "4044 E Southport Rd",
                "city" : "Indianapolis", 
                "state" : "IN",
                "zip" : "46237"
            },
            {
                "street" : "706 W Trafalgar Point Way",
                "city" : "Trafalgar", 
                "state" : "IN",
                "zip" : "46181"
            },
            {
                "street" : "805 E JEFFERSON ST",
                "city": "TIPTON",
                "state" : "IN",
                "zip" : "46072"
            }            
        ], 
        "driversLicenseDescription" : ["1 char's, 9 num's", "10 num's"], 
        "sampleLicense" : "A123320123",
        "unionAdmissionDate" : "1816-12-11"
    }, 
    {
        "name" : "Iowa",
        "abbrev" : "IA",
        "capital" : "Des Moines", 
        "addresses" : [
            {
                "street" : "726 1ST AVENUE E.",
                "city" : "NEWTON", 
                "state" : "IA",
                "zip" : "50208"
            },
            {
                "street" : "3402 S CENTER ST",
                "city" : "MARSHALLTOWN", 
                "state" : "IA",
                "zip" : "50158"
            },
            {
                "street" : "1403 WALNUT ST",
                "city": "COLFAX",
                "state" : "IA",
                "zip" : "50054"
            }            
        ], 
        "driversLicenseDescription" : ["9 num's", "7 char's, 2 num's"], 
        "sampleLicense" : "456987456",
        "unionAdmissionDate" : "1846-12-28"
    }, 
    {
        "name" : "Kansas",
        "abbrev" : "KS",
        "capital" : "Topeka", 
        "addresses" : [
            {
                "street" : "634 S Kansas Ave",
                "city" : "Topeka", 
                "state" : "KS",
                "zip" : "66603"
            },
            {
                "street" : "701 Walnut St",
                "city" : "Oskaloosa", 
                "state" : "KS",
                "zip" : "66066"
            },
            {
                "street" : "101 North St",
                "city": "Seneca",
                "state" : "KS",
                "zip" : "66538"
            }            
        ], 
        "driversLicenseDescription" : ["9 num's", "Letter \"K\", 8 num's"], 
        "sampleLicense" : "123321123",
        "unionAdmissionDate" : "1861-01-29"
    }, 
    {
        "name" : "Kentucky",
        "abbrev" : "KY",
        "capital" : "Frankfort", 
        "addresses" : [
            {
                "street" : "455 Southland Dr D",
                "city" : "Lexington", 
                "state" : "KY",
                "zip" : "40503"
            },
            {
                "street" : "7201 Alexandria Pike",
                "city" : "Alexandria", 
                "state" : "KY",
                "zip" : "41001"
            },
            {
                "street" : "1974 KY-192",
                "city": "London",
                "state" : "KY",
                "zip" : "40741"
            }            
        ], 
        "driversLicenseDescription" : ["1 char's, 8 num's", "9-10 num's"], 
        "sampleLicense" : "A12365445",
        "unionAdmissionDate" : "1792-06-01"
    }, 
    {
        "name" : "Louisiana",
        "abbrev" : "LA",
        "capital" : "Baton Rouge", 
        "addresses" : [
            {
                "street" : "501 Veterans Memorial Dr",
                "city" : "Abbeville", 
                "state" : "LA",
                "zip" : "70510"
            },
            {
                "street" : "701 Poydras Street",
                "city" : "New Orleans", 
                "state" : "LA",
                "zip" : "70139"
            },
            {
                "street" : "3205 Louisiana Ave",
                "city": "Lafayette",
                "state" : "LA",
                "zip" : "70501"
            }            
        ], 
        "driversLicenseDescription" : ["\"00\" + 7 num's"], 
        "sampleLicense" : "001563217",
        "unionAdmissionDate" : "1812-04-30"
    }, 
    {
        "name" : "Maine",
        "abbrev" : "ME",
        "capital" : "Augusta", 
        "addresses" : [
            {
                "street" : "465 Kennedy Memorial Dr",
                "city" : "Waterville", 
                "state" : "ME",
                "zip" : "04901"
            },
            {
                "street" : "670 Center St",
                "city" : "Auburn", 
                "state" : "ME",
                "zip" : "04210"
            },
            {
                "street" : "189 Main St",
                "city": "Saco",
                "state" : "ME",
                "zip" : "04072"
            }            
        ], 
        "driversLicenseDescription" : ["7 num's"], 
        "sampleLicense" : "1234567",
        "unionAdmissionDate" : "1820-03-15"
    }, 
    {
        "name" : "Maryland",
        "abbrev" : "MD",
        "capital" : "Annapolis", 
        "addresses" : [
            {
                "street" : "1323 Policy Dr",
                "city" : "Belcamp", 
                "state" : "MD",
                "zip" : "21017"
            },
            {
                "street" : "2351 Frederick Ave",
                "city" : "Baltimore", 
                "state" : "MD",
                "zip" : "21223"
            },
            {
                "street" : "3365 Crain Hwy",
                "city": "Waldorf",
                "state" : "MD",
                "zip" : "20603"
            }            
        ], 
        "driversLicenseDescription" : ["1 char's, 12 num's"], 
        "sampleLicense" : "A123654789654",
        "unionAdmissionDate" : "1788-04-28"
    }, 
    {
        "name" : "Massachusetts",
        "abbrev" : "MA",
        "capital" : "Boston", 
        "addresses" : [
            {
                "street" : "360 Huntington Ave",
                "city" : "Boston", 
                "state" : "MA",
                "zip" : "02115"
            },
            {
                "street" : "1560 VFW Pkwy",
                "city" : "West Roxbury,", 
                "state" : "MA",
                "zip" : "02132"
            },
            {
                "street" : "740 Middle St",
                "city": "Weymouth",
                "state" : "MA",
                "zip" : "02188"
            }            
        ], 
        "driversLicenseDescription" : ["1 char's, 8 num's", "9 num's"], 
        "sampleLicense" : "A32165465",
        "unionAdmissionDate" : "1788-02-06"
    }, 
    {
        "name" : "Michigan",
        "abbrev" : "MI",
        "capital" : "Lansing", 
        "addresses" : [
            {
                "street" : "4235 Woodward Ave",
                "city" : "Detroit", 
                "state" : "MI",
                "zip" : "48201"
            },
            {
                "street" : "423 W Eleven Mile Rd",
                "city" : "Royal Oak", 
                "state" : "MI",
                "zip" : "48067"
            },
            {
                "street" : "26765 Gratiot Ave",
                "city": "Roseville",
                "state" : "MI",
                "zip" : "48066"
            }            
        ], 
        "driversLicenseDescription" : ["1 char's, 12 num's"], 
        "sampleLicense" : "A123654456321",
        "unionAdmissionDate" : "1837-01-26"
    }, 
    {
        "name" : "Minnesota",
        "abbrev" : "MN",
        "capital" : "Minneapolis", 
        "addresses" : [
            {
                "street" : "2929 Hennepin Ave S",
                "city" : "Minneapolis", 
                "state" : "MN",
                "zip" : "55408"
            },
            {
                "street" : "21044 Kenrick Ave",
                "city" : "Lakeville", 
                "state" : "MN",
                "zip" : "55044"
            },
            {
                "street" : "13000 Zoo Blvd",
                "city": "Apple Valley",
                "state" : "MN",
                "zip" : "55124"
            }            
        ], 
        "driversLicenseDescription" : ["1 char's, 12 num's"], 
        "sampleLicense" : "B321123654456",
        "unionAdmissionDate" : "1858-05-11"
    }, 
    {
        "name" : "Mississippi",
        "abbrev" : "MS",
        "capital" : "Jackson", 
        "addresses" : [
            {
                "street" : "5575 I-55 South Frontage Rd",
                "city" : "Byram", 
                "state" : "MS",
                "zip" : "39272"
            },
            {
                "street" : "1146 E County Line Rd",
                "city" : "Ridgeland", 
                "state" : "MS",
                "zip" : "39157"
            },
            {
                "street" : "1200 High St",
                "city": "Jackson",
                "state" : "MS",
                "zip" : "39202"
            }            
        ], 
        "driversLicenseDescription" : ["9 num's"], 
        "sampleLicense" : "156651651",
        "unionAdmissionDate" : "1817-12-10"
    }, 
    {
        "name" : "Missouri",
        "abbrev" : "MO",
        "capital" : "Jefferson City", 
        "addresses" : [
            {
                "street" : "401 Supercenter Dr",
                "city" : "Jefferson City", 
                "state" : "MO",
                "zip" : "65101"
            },
            {
                "street" : "3978 Osage Beach Pkwy",
                "city" : "Osage Beach", 
                "state" : "MO",
                "zip" : "65065"
            },
            {
                "street" : "1712 E Ohio St",
                "city": "Clinton",
                "state" : "MO",
                "zip" : "64735"
            }            
        ], 
        "driversLicenseDescription" : ["9 num's", "1 char's, 6-7 num's"], 
        "sampleLicense" : "156321456",
        "unionAdmissionDate" : "1812-08-10"
    }, 
    {
        "name" : "Montana",
        "abbrev" : "MT",
        "capital" : "Helena", 
        "addresses" : [
            {
                "street" : "3130 N Sanders St",
                "city" : "Helena", 
                "state" : "MT",
                "zip" : "59601"
            },
            {
                "street" : "6915 Jackrabbit Ln",
                "city" : "Belgrade", 
                "state" : "MT",
                "zip" : "59714"
            },
            {
                "street" : "1922 W Main St",
                "city": "Bozeman",
                "state" : "MT",
                "zip" : "59718"
            }            
        ], 
        "driversLicenseDescription" : ["9 num's", "13 num's", "1 char's, 1 num's, 1 char's, 2 num's, 3 char's, and 1 num's"], 
        "sampleLicense" : "123321123",
        "unionAdmissionDate" : "1889-11-08"
    }, 
    {
        "name" : "Nebraska",
        "abbrev" : "NE",
        "capital" : "Lincoln", 
        "addresses" : [
            {
                "street" : "345 W O St",
                "city" : "Lincoln", 
                "state" : "NE",
                "zip" : "68522"
            },
            {
                "street" : "4635 N 72nd St",
                "city" : "Omaha", 
                "state" : "NE",
                "zip" : "68134"
            },
            {
                "street" : "1500 S 11th St",
                "city": "Nebraska City",
                "state" : "NE",
                "zip" : "68410"
            }            
        ], 
        "driversLicenseDescription" : ["1 char's, 6-8 num's"], 
        "sampleLicense" : "B456321",
        "unionAdmissionDate" : "1867-03-01"
    }, 
    {
        "name" : "Nevada",
        "abbrev" : "NV",
        "capital" : "Carson City", 
        "addresses" : [
            {
                "street" : "3905 S Carson St",
                "city" : "Carson City", 
                "state" : "NV",
                "zip" : "89701"
            },
            {
                "street" : "1150 Kietzke Ln",
                "city" : "Reno", 
                "state" : "NV",
                "zip" : "89502"
            },
            {
                "street" : "1500 State Rte 343",
                "city": "Fernley",
                "state" : "NV",
                "zip" : "89408"
            }            
        ], 
        "driversLicenseDescription" : ["9 num's", "10 num's"], 
        "sampleLicense" : "123321123",
        "unionAdmissionDate" : "1864-10-31"
    }, 
    {
        "name" : "New Hampshire",
        "abbrev" : "NH",
        "capital" : "Concord", 
        "addresses" : [
            {
                "street" : "321 Loudon Rd",
                "city" : "Concord", 
                "state" : "NH",
                "zip" : "03301"
            },
            {
                "street" : "1045 S Willow St",
                "city" : "Manchester", 
                "state" : "NH",
                "zip" : "03103"
            },
            {
                "street" : "4 Chambers Dr",
                "city": "Hooksett",
                "state" : "NH",
                "zip" : "03106"
            }            
        ], 
        "driversLicenseDescription" : ["2 num's, 3 char's, 5 num's"], 
        "sampleLicense" : "12ABC32145",
        "unionAdmissionDate" : "1788-06-21"
    }, 
    {
        "name" : "New Jersey",
        "abbrev" : "NJ",
        "capital" : "Trenton", 
        "addresses" : [
            {
                "street" : "8 NJ-35",
                "city" : "Neptune City", 
                "state" : "NJ",
                "zip" : "07753"
            },
            {
                "street" : "200 Ryders Ln",
                "city" : "Milltown", 
                "state" : "NJ",
                "zip" : "08850"
            },
            {
                "street" : "590 S Broad St",
                "city": "Trenton",
                "state" : "NJ",
                "zip" : "08611"
            }            
        ], 
        "driversLicenseDescription" : ["1 char's, 14 num's"], 
        "sampleLicense" : "C32145698745655",
        "unionAdmissionDate" : "1787-12-18"
    }, 
    {
        "name" : "New Mexico",
        "abbrev" : "NM",
        "capital" : "Santa Fe", 
        "addresses" : [
            {
                "street" : "3299 Cerrillos Rd",
                "city" : "Santa Fe", 
                "state" : "NM",
                "zip" : "87507"
            },
            {
                "street" : "1501 7th St",
                "city" : "Las Vegas", 
                "state" : "NM",
                "zip" : "87701"
            },
            {
                "street" : "5001 Gibson Blvd SE",
                "city": "Albuquerque",
                "state" : "NM",
                "zip" : "87108"
            }            
        ], 
        "driversLicenseDescription" : ["8 num's", "9 num's"], 
        "sampleLicense" : "15665445",
        "unionAdmissionDate" : "1912-01-06"
    }, 
    {
        "name" : "New York",
        "abbrev" : "NY",
        "capital" : "Albany", 
        "addresses" : [
            {
                "street" : "1006 Central Ave",
                "city" : "Albany", 
                "state" : "NY",
                "zip" : "12205"
            },
            {
                "street" : "132 Delaware Ave",
                "city" : "Delmar", 
                "state" : "NY",
                "zip" : "12054"
            },
            {
                "street" : "276 Service Rd",
                "city": "Amsterdam",
                "state" : "NY",
                "zip" : "12010"
            }            
        ], 
        "driversLicenseDescription" : ["9 num's"], 
        "sampleLicense" : "156321456",
        "unionAdmissionDate" : "1788-07-26"
    }, 
    {
        "name" : "North Carolina",
        "abbrev" : "NC",
        "capital" : "Raleigh", 
        "addresses" : [
            {
                "street" : "105 E South St",
                "city" : "Raleigh", 
                "state" : "NC",
                "zip" : "27601"
            },
            {
                "street" : "600 E Main St",
                "city" : "Benson", 
                "state" : "NC",
                "zip" : "27504"
            },
            {
                "street" : "1429 Sunset Ave",
                "city": "Clinton",
                "state" : "NC",
                "zip" : "28328"
            }            
        ], 
        "driversLicenseDescription" : ["12 num's"], 
        "sampleLicense" : "123321456654",
        "unionAdmissionDate" : "1789-11-21"
    }, 
    {
        "name" : "North Dakota",
        "abbrev" : "ND",
        "capital" : "Bismarck", 
        "addresses" : [
            {
                "street" : "2631 State St",
                "city" : "Bismarck", 
                "state" : "ND",
                "zip" : "58503"
            },
            {
                "street" : "2601 Memorial Hwy",
                "city" : "Mandan", 
                "state" : "ND",
                "zip" : "58554"
            },
            {
                "street" : "3100 S Broadway St",
                "city": "Minot",
                "state" : "ND",
                "zip" : "58701"
            }            
        ], 
        "driversLicenseDescription" : ["9 num's", "3 char's, 6 num's"], 
        "sampleLicense" : "156321456",
        "unionAdmissionDate" : "1889-11-02"
    }, 
    {
        "name" : "Ohio",
        "abbrev" : "OH",
        "capital" : "Columbus", 
        "addresses" : [
            {
                "street" : "381 E Main St",
                "city" : "Columbus", 
                "state" : "OH",
                "zip" : "43215"
            },
            {
                "street" : "2100 N Bechtle Ave",
                "city" : "Springfield", 
                "state" : "OH",
                "zip" : "45504"
            },
            {
                "street" : "160 Woodman Dr",
                "city": "Riverside",
                "state" : "OH",
                "zip" : "45431"
            }            
        ], 
        "driversLicenseDescription" : ["9 num's", "2 char's, 6 num's"], 
        "sampleLicense" : "156321456",
        "unionAdmissionDate" : "1803-03-01"
    }, 
    {
        "name" : "Oklahoma",
        "abbrev" : "OK",
        "capital" : "Oklahoma City", 
        "addresses" : [
            {
                "street" : "936 W Sheridan Ave",
                "city" : "Oklahoma City", 
                "state" : "OK",
                "zip" : "73106"
            },
            {
                "street" : "731 W Main St",
                "city" : "Norman", 
                "state" : "OK",
                "zip" : "73069"
            },
            {
                "street" : "2609 Grant Ave",
                "city": "Pauls Valley",
                "state" : "OK",
                "zip" : "73075"
            }            
        ], 
        "driversLicenseDescription" : ["9 num's"], 
        "sampleLicense" : "156651651",
        "unionAdmissionDate" : "1907-11-16"
    }, 
    {
        "name" : "Oregon",
        "abbrev" : "OR",
        "capital" : "Salem", 
        "addresses" : [
            {
                "street" : "10010 SE Stark St",
                "city" : "Portland", 
                "state" : "OR",
                "zip" : "97216"
            },
            {
                "street" : "1435 SE Geary St",
                "city" : "Albany", 
                "state" : "OR",
                "zip" : "97322"
            },
            {
                "street" : "802 Lancaster Dr NE",
                "city": "Salem",
                "state" : "OR",
                "zip" : "97301"
            }            
        ], 
        "driversLicenseDescription" : ["6-7 num's"], 
        "sampleLicense" : "1233214",
        "unionAdmissionDate" : "1859-02-14"
    }, 
    {
        "name" : "Pennsylvania",
        "abbrev" : "PA",
        "capital" : "Harrisburg", 
        "addresses" : [
            {
                "street" : "3925 N Front St",
                "city" : "Harrisburg", 
                "state" : "PA",
                "zip" : "17110"
            },
            {
                "street" : "922 Loucks Rd",
                "city" : "York", 
                "state" : "PA",
                "zip" : "17404"
            },
            {
                "street" : "1117 Harrisburg Pike",
                "city": "Lancaster",
                "state" : "PA",
                "zip" : "17603"
            }            
        ], 
        "driversLicenseDescription" : ["8 num's"], 
        "sampleLicense" : "15665478",
        "unionAdmissionDate" : "1787-12-12"
    }, 
    {
        "name" : "Rhode Island",
        "abbrev" : "RI",
        "capital" : "Providence", 
        "addresses" : [
            {
                "street" : "731 Eddy St",
                "city" : "Providence", 
                "state" : "RI",
                "zip" : "02903"
            },
            {
                "street" : "1199 Chopmist Hill Rd",
                "city" : "North Scituate", 
                "state" : "RI",
                "zip" : "02857"
            },
            {
                "street" : "130 Pascoag Main St",
                "city": "Pascoag",
                "state" : "RI",
                "zip" : "02859"
            }            
        ], 
        "driversLicenseDescription" : ["7 num's"], 
        "sampleLicense" : "1233214",
        "unionAdmissionDate" : "1790-05-29"
    }, 
    {
        "name" : "South Carolina",
        "abbrev" : "SC",
        "capital" : "Columbia", 
        "addresses" : [
            {
                "street" : "2349 Taylor St",
                "city" : "Columbia", 
                "state" : "SC",
                "zip" : "29204"
            },
            {
                "street" : "4008 Boiling Springs Rd",
                "city" : "Boiling Springs", 
                "state" : "SC",
                "zip" : "29316"
            },
            {
                "street" : "1217 Woodruff Rd",
                "city": "Greenville",
                "state" : "SC",
                "zip" : "29607"
            }            
        ], 
        "driversLicenseDescription" : ["7 num's", "9 num's with 2 zeros in front"], 
        "sampleLicense" : "1566544",
        "unionAdmissionDate" : "1788-05-23"
    }, 
    {
        "name" : "South Dakota",
        "abbrev" : "SD",
        "capital" : "Pierre", 
        "addresses" : [
            {
                "street" : "512 W Sioux Ave",
                "city" : "Pierre", 
                "state" : "SD",
                "zip" : "57501"
            },
            {
                "street" : "520 Mountain View Rd",
                "city" : "Rapid City", 
                "state" : "SD",
                "zip" : "57702"
            },
            {
                "street" : "2610 Lazelle St",
                "city": "Sturgis",
                "state" : "SD",
                "zip" : "57785"
            }            
        ], 
        "driversLicenseDescription" : ["7 num's", "8 num's", "9 num's", "11 num's"], 
        "sampleLicense" : "1566544",
        "unionAdmissionDate" : "1889-11-02"
    }, 
    {
        "name" : "Tennessee",
        "abbrev" : "TN",
        "capital" : "Nashville", 
        "addresses" : [
            {
                "street" : "2603 West End Ave",
                "city" : "Nashville", 
                "state" : "TN",
                "zip" : "37203"
            },
            {
                "street" : "1114 Nashville Hwy",
                "city" : "Columbia", 
                "state" : "TN",
                "zip" : "38401"
            },
            {
                "street" : "1622 N Locust Ave",
                "city": "Lawrenceburg",
                "state" : "TN",
                "zip" : "38464"
            }            
        ], 
        "driversLicenseDescription" : ["7-9 num's"], 
        "sampleLicense" : "123654456",
        "unionAdmissionDate" : "1796-06-01"
    }, 
    {
        "name" : "Texas",
        "abbrev" : "TX",
        "capital" : "Austin", 
        "addresses" : [
            {
                "street" : "201 E 21st St",
                "city" : "Austin", 
                "state" : "TX",
                "zip" : "78712"
            },
            {
                "street" : "806 N Austin Ave",
                "city" : "Georgetown", 
                "state" : "TX",
                "zip" : "78626"
            },
            {
                "street" : "1350 Austin Hwy",
                "city": "San Antonio",
                "state" : "TX",
                "zip" : "78209"
            }            
        ], 
        "driversLicenseDescription" : ["8 num's beginning with 0, 1, or 2"], 
        "sampleLicense" : "01232144",
        "unionAdmissionDate" : "1845-12-29"
    }, 
    {
        "name" : "Utah",
        "abbrev" : "UT",
        "capital" : "Salt Lake City", 
        "addresses" : [
            {
                "street" : "85 E 1300 S",
                "city" : "Salt Lake City", 
                "state" : "UT",
                "zip" : "84115"
            },
            {
                "street" : "195 W 500 S",
                "city" : "Bountiful", 
                "state" : "UT",
                "zip" : "84010"
            },
            {
                "street" : "1160 Wall Ave",
                "city": "Ogden",
                "state" : "UT",
                "zip" : "84404"
            }            
        ], 
        "driversLicenseDescription" : ["6-9 num's"], 
        "sampleLicense" : "123321456",
        "unionAdmissionDate" : "1896-01-04"
    }, 
    {
        "name" : "Vermont",
        "abbrev" : "VT",
        "capital" : "Montpelier", 
        "addresses" : [
            {
                "street" : "28 State St",
                "city" : "Montpelier", 
                "state" : "VT",
                "zip" : "05602"
            },
            {
                "street" : "149 S Main St",
                "city" : "Waterbury", 
                "state" : "VT",
                "zip" : "05676"
            },
            {
                "street" : "332 Barre-Montpelier Rd",
                "city": "Barre",
                "state" : "VT",
                "zip" : "05641"
            }            
        ], 
        "driversLicenseDescription" : ["8 num's", "7 num's, 1 char's"], 
        "sampleLicense" : "15615665",
        "unionAdmissionDate" : "1791-03-04"
    }, 
    {
        "name" : "Virginia",
        "abbrev" : "VA",
        "capital" : "Richmond", 
        "addresses" : [
            {
                "street" : "1800 E Broad St",
                "city" : "Richmond", 
                "state" : "VA",
                "zip" : "23223"
            },
            {
                "street" : "1192 Richmond Rd",
                "city" : "Charlottesville", 
                "state" : "VA",
                "zip" : "22911"
            },
            {
                "street" : "710 Shenandoah Village Dr",
                "city": "Waynesboro",
                "state" : "VA",
                "zip" : "22980"
            }            
        ], 
        "driversLicenseDescription" : ["12 num's", "1 char's, 8 num's"], 
        "sampleLicense" : "123321456654",
        "unionAdmissionDate" : "1788-06-25"
    }, 
    {
        "name" : "Washington",
        "abbrev" : "WA",
        "capital" : "Olympia", 
        "addresses" : [
            {
                "street" : "2611 Harrison Ave NW",
                "city" : "Olympia", 
                "state" : "WA",
                "zip" : "98502"
            },
            {
                "street" : "13609 Meridian Ave E",
                "city" : "Puyallup", 
                "state" : "WA",
                "zip" : "98373"
            },
            {
                "street" : "1401 72nd St E",
                "city": "Tacoma",
                "state" : "WA",
                "zip" : "98404"
            }            
        ], 
        "driversLicenseDescription" : ["7 char's, 3 num's, 2 chars"], 
        "sampleLicense" : "ABCDEFG123AA",
        "unionAdmissionDate" : "1889-11-11"
    }, 
    {
        "name" : "West Virginia",
        "abbrev" : "WV",
        "capital" : "Charleston", 
        "addresses" : [
            {
                "street" : "3303 MacCorkle Ave SE",
                "city" : "Charleston", 
                "state" : "WV",
                "zip" : "25304"
            },
            {
                "street" : "733 9th Ave",
                "city" : "Huntington", 
                "state" : "WV",
                "zip" : "25701"
            },
            {
                "street" : "4223 Robert C Byrd Dr",
                "city": "Beckley",
                "state" : "WV",
                "zip" : "25801"
            }            
        ], 
        "driversLicenseDescription" : ["1 char's, 6 num's", "2 char's, 5 num's", "the number \"1\", the letter \"X\", 5 num's"], 
        "sampleLicense" : "A156321",
        "unionAdmissionDate" : "1863-06-20"
    }, 
    {
        "name" : "Wisconsin",
        "abbrev" : "WI",
        "capital" : "Madison", 
        "addresses" : [
            {
                "street" : "633 S Gammon Rd",
                "city" : "Madison", 
                "state" : "WI",
                "zip" : "53719"
            },
            {
                "street" : "147 Wittig Rd",
                "city" : "Tomah", 
                "state" : "WI",
                "zip" : "54660"
            },
            {
                "street" : "810 2nd Ave S",
                "city": "Onalaska",
                "state" : "WI",
                "zip" : "54650"
            }            
        ], 
        "driversLicenseDescription" : ["1 char's, 13 num's"], 
        "sampleLicense" : "A1233213213211",
        "unionAdmissionDate" : "1848-05-29"
    }, 
    {
        "name" : "Wyoming",
        "abbrev" : "WY",
        "capital" : "Cheyenne", 
        "addresses" : [
            {
                "street" : "205 N Greeley Hwy",
                "city" : "Cheyenne", 
                "state" : "WY",
                "zip" : "82007"
            },
            {
                "street" : "1457 South St",
                "city" : "Wheatland", 
                "state" : "WY",
                "zip" : "82201"
            },
            {
                "street" : "80 W F St",
                "city": "Casper",
                "state" : "WY",
                "zip" : "82601"
            }            
        ], 
        "driversLicenseDescription" : ["9-10 num's"], 
        "sampleLicense" : "156654789",
        "unionAdmissionDate" : "1890-07-10"
    }
]